[{"OBJECT_NAME":"OBJECT A","OBJECT_ID":"2025-197A","EPOCH":"2026-03-09T23:57:28.367136","MEAN_MOTION":15.09670549,"ECCENTRICITY":0.0013887,"INCLINATION":97.4116,"RA_OF_ASC_NODE":254.3664,"ARG_OF_PERICENTER":14.3167,"MEAN_ANOMALY":345.8453,"EPHEMERIS_TYPE":0,"CLASSIFICATION_TYPE":"U","NORAD_CAT_ID":65488,"ELEMENT_SET_NO":999,"REV_AT_EPOCH":2804,"BSTAR":0.00030852597,"MEAN_MOTION_DOT":4.917e-5,"MEAN_MOTION_DDOT":0},{"OBJECT_NAME":"H-2A R\/B","OBJECT_ID":"2009-002J","EPOCH":"2026-03-09T23:38:52.170720","MEAN_MOTION":15.01829324,"ECCENTRICITY":0.00333022,"INCLINATION":98.2328,"RA_OF_ASC_NODE":87.9691,"ARG_OF_PERICENTER":111.7239,"MEAN_ANOMALY":248.7534,"EPHEMERIS_TYPE":0,"CLASSIFICATION_TYPE":"U","NORAD_CAT_ID":33500,"ELEMENT_SET_NO":999,"REV_AT_EPOCH":92943,"BSTAR":0.00033449169,"MEAN_MOTION_DOT":4.347e-5,"MEAN_MOTION_DDOT":0}]
